NORAD_CAT_ID,OBJECT_NAME,OBJECT_TYPE,EPOCH,MEAN_MOTION,ECCENTRICITY,INCLINATION,RA_OF_ASC_NODE,ARG_OF_PERICENTER,MEAN_ANOMALY,BSTAR,MEAN_MOTION_DOT,MEAN_MOTION_DDOT,TLE_LINE0,TLE_LINE1,TLE_LINE2,SEMIMAJOR_AXIS,PERIOD,APOGEE,PERIGEE,DECAYED
52543.0,STARLINK-3926,PAYLOAD,2023-08-16 09:19:07,15.08833043,0.0001203,53.2176,12.3387,83.6631,276.4498,9.283e-05,1.19e-05,0.0,0 STARLINK-3926,1 52543U 22051L   23228.38828179  .00001190  00000-0  92830-4 0  9999,2 52543  53.2176  12.3387 0001203  83.6631 276.4498 15.08833043 70161,6917.902,95.438,540.599,538.934,0.0
52543.0,STARLINK-3926,PAYLOAD,2023-08-17 02:48:21,15.08845146,0.0001286,53.2176,9.0679,81.6555,278.4583,9.5419e-05,1.231e-05,0.0,0 STARLINK-3926,1 52543U 22051L   23229.11691375  .00001231  00000-0  95419-4 0  9999,2 52543  53.2176   9.0679 0001286  81.6555 278.4583 15.08845146 70278,6917.865,95.437,540.619,538.84,0.0
52543.0,STARLINK-3926,PAYLOAD,2023-08-18 18:32:59,15.0884123,0.0001436,53.2173,1.6317,102.3761,257.7392,6.5411e-05,7.53e-06,0.0,0 STARLINK-3926,1 52543U 22051L   23230.77291526  .00000753  00000-0  65411-4 0  9994,2 52543  53.2173   1.6317 0001436 102.3761 257.7392 15.08841230 70525,6917.877,95.437,540.735,538.748,0.0
52543.0,STARLINK-3926,PAYLOAD,2023-08-19 12:02:16,15.08782265,0.0001278,53.2165,358.3615,120.216,239.8959,0.00089075,0.00013894,0.0,0 STARLINK-3926,1 52543U 22051L   23231.50157474  .00013894  00000-0  89075-3 0  9990,2 52543  53.2165 358.3615 0001278 120.2160 239.8959 15.08782265 70639,6918.057,95.441,540.806,539.038,0.0
52543.0,STARLINK-3926,PAYLOAD,2023-08-19 18:23:46,15.08842285,0.0001502,53.2165,357.1716,107.9493,252.1663,4.0169e-05,3.51e-06,0.0,0 STARLINK-3926,1 52543U 22051L   23231.76651408  .00000351  00000-0  40169-4 0  9990,2 52543  53.2165 357.1716 0001502 107.9493 252.1663 15.08842285 70672,6917.873,95.437,540.777,538.699,0.0
52543.0,STARLINK-3926,PAYLOAD,2023-08-20 11:53:02,15.08808937,0.0001421,53.2154,353.9013,111.0793,249.0351,0.00043959,6.709e-05,0.0,0 STARLINK-3926,1 52543U 22051L   23232.49516667  .00006709  00000-0  43959-3 0  9990,2 52543  53.2154 353.9013 0001421 111.0793 249.0351 15.08808937 70780,6917.975,95.44,540.823,538.857,0.0
52543.0,STARLINK-3926,PAYLOAD,2023-08-20 15:03:47,15.08840405,0.0001311,53.2178,353.3091,85.6259,274.4883,1.5633e-05,-3.9e-07,0.0,0 STARLINK-3926,1 52543U 22051L   23232.62763761 -.00000039  00000-0  15633-4 0  9994,2 52543  53.2178 353.3091 0001311  85.6259 274.4883 15.08840405 70808,6917.879,95.438,540.651,538.837,0.0
52543.0,STARLINK-3926,PAYLOAD,2023-08-21 14:54:35,15.08836329,0.0001332,53.2208,348.8535,95.4831,264.6313,4.7779e-05,4.73e-06,0.0,0 STARLINK-3926,1 52543U 22051L   23233.62124197  .00000473  00000-0  47779-4 0  9996,2 52543  53.2208 348.8535 0001332  95.4831 264.6313 15.08836329 70957,6917.892,95.438,540.678,538.835,0.0
52543.0,STARLINK-3926,PAYLOAD,2023-08-23 13:00:46,15.08840067,0.0001261,53.2193,340.225,96.6846,263.429,8.4746e-05,1.061e-05,0.0,0 STARLINK-3926,1 52543U 22051L   23235.54220274  .00001061  00000-0  84746-4 0  9991,2 52543  53.2193 340.2250 0001261  96.6846 263.4290 15.08840067 71248,6917.88,95.438,540.618,538.873,0.0
52543.0,STARLINK-3926,PAYLOAD,2023-08-24 11:16:10,15.08842623,0.0001246,53.2182,336.0617,90.4364,269.6771,8.4728e-05,1.061e-05,0.0,0 STARLINK-3926,1 52543U 22051L   23236.46956157  .00001061  00000-0  84728-4 0  9999,2 52543  53.2182 336.0617 0001246  90.4364 269.6771 15.08842623 71316,6917.872,95.437,540.599,538.875,0.0
52543.0,STARLINK-3926,PAYLOAD,2023-08-25 11:06:57,15.08825367,0.0001064,53.2182,331.6021,88.1808,271.9306,0.0003248,4.883e-05,0.0,0 STARLINK-3926,1 52543U 22051L   23237.46316356  .00004883  00000-0  32480-3 0  9993,2 52543  53.2182 331.6021 0001064  88.1808 271.9306 15.08825367 71531,6917.925,95.438,540.526,539.054,0.0
52543.0,STARLINK-3926,PAYLOAD,2023-08-25 12:42:19,15.08886201,0.0001016,53.2178,331.3045,78.176,281.9346,-0.00048231,-7.965e-05,0.0,0 STARLINK-3926,1 52543U 22051L   23237.52938665 -.00007965  00000-0 -48231-3 0  9990,2 52543  53.2178 331.3045 0001016  78.1760 281.9346 15.08886201 71474,6917.739,95.435,540.307,538.901,0.0
52543.0,STARLINK-3926,PAYLOAD,2023-08-26 10:57:44,15.08837633,0.0001509,53.2186,327.1415,105.9389,254.1769,-5.6856e-06,-3.78e-06,0.0,0 STARLINK-3926,1 52543U 22051L   23238.45676447 -.00000378  00000-0 -56856-5 0  9995,2 52543  53.2186 327.1415 0001509 105.9389 254.1769 15.08837633 71689,6917.888,95.438,540.797,538.709,0.0
52543.0,STARLINK-3926,PAYLOAD,2023-08-27 09:13:08,15.08841029,0.0001435,53.2182,322.9782,102.8736,257.2416,4.4367e-05,4.18e-06,0.0,0 STARLINK-3926,1 52543U 22051L   23239.38412083  .00000418  00000-0  44367-4 0  9998,2 52543  53.2182 322.9782 0001435 102.8736 257.2416 15.08841029 71750,6917.877,95.437,540.735,538.75,0.0
52543.0,STARLINK-3926,PAYLOAD,2023-08-28 01:06:59,15.08837903,0.0001257,53.2176,320.0038,98.485,261.6285,5.7495e-05,6.27e-06,0.0,0 STARLINK-3926,1 52543U 22051L   23240.04652287  .00000627  00000-0  57495-4 0  9993,2 52543  53.2176 320.0038 0001257  98.4850 261.6285 15.08837903 71923,6917.887,95.438,540.621,538.882,0.0
52543.0,STARLINK-3926,PAYLOAD,2023-08-28 09:03:55,15.08829739,0.0001372,53.2183,318.5179,100.804,259.3107,-8.9107e-06,-4.3e-06,0.0,0 STARLINK-3926,1 52543U 22051L   23240.37773115 -.00000430  00000-0 -89107-5 0  9993,2 52543  53.2183 318.5179 0001372 100.8040 259.3107 15.08829739 71976,6917.912,95.438,540.726,538.828,0.0
52543.0,STARLINK-3926,PAYLOAD,2023-08-28 12:14:42,15.08832465,0.0001328,53.2181,317.9236,95.5383,264.5761,1.5085e-05,-4.8e-07,0.0,0 STARLINK-3926,1 52543U 22051L   23240.51020939 -.00000048  00000-0  15085-4 0  9995,2 52543  53.2181 317.9236 0001328  95.5383 264.5761 15.08832465 71921,6917.903,95.438,540.687,538.85,0.0
52543.0,STARLINK-3926,PAYLOAD,2023-08-28 21:47:00,15.08835051,0.0001374,53.2182,316.1397,96.1346,263.9803,2.1317e-05,5.1e-07,0.0,0 STARLINK-3926,1 52543U 22051L   23240.90764894  .00000051  00000-0  21317-4 0  9991,2 52543  53.2182 316.1397 0001374  96.1346 263.9803 15.08835051 72057,6917.896,95.438,540.711,538.81,0.0
52543.0,STARLINK-3926,PAYLOAD,2023-08-29 12:05:28,15.08842088,0.0001328,53.2178,313.4628,95.1138,265.0006,4.9039e-05,4.93e-06,0.0,0 STARLINK-3926,1 52543U 22051L   23241.50380432  .00000493  00000-0  49039-4 0  9991,2 52543  53.2178 313.4628 0001328  95.1138 265.0006 15.08842088 72142,6917.874,95.437,540.658,538.82,0.0
52543.0,STARLINK-3926,PAYLOAD,2023-08-30 03:59:20,15.08832282,0.000129,53.2173,310.4894,94.8249,265.289,8.1534e-05,1.01e-05,0.0,0 STARLINK-3926,1 52543U 22051L   23242.16621018  .00001010  00000-0  81534-4 0  9994,2 52543  53.2173 310.4894 0001290  94.8249 265.2890 15.08832282 72245,6917.904,95.438,540.661,538.877,0.0
52543.0,STARLINK-3926,PAYLOAD,2023-08-30 11:56:16,15.08831603,0.0001432,53.2179,309.002,98.5439,261.5716,5.6924e-05,6.18e-06,0.0,0 STARLINK-3926,1 52543U 22051L   23242.49741344  .00000618  00000-0  56924-4 0  9993,2 52543  53.2179 309.0020 0001432  98.5439 261.5716 15.08831603 72226,6917.906,95.438,540.762,538.78,0.0
52543.0,STARLINK-3926,PAYLOAD,2023-08-31 03:50:07,15.08837175,0.0001392,53.218,306.0288,90.6123,269.5029,2.0276e-05,3.5e-07,0.0,0 STARLINK-3926,1 52543U 22051L   23243.15981401  .00000035  00000-0  20276-4 0  9991,2 52543  53.2180 306.0288 0001392  90.6123 269.5029 15.08837175 72325,6917.889,95.438,540.717,538.791,0.0
52543.0,STARLINK-3926,PAYLOAD,2023-09-01 10:02:28,15.08840038,0.000156,53.217,300.3797,292.863,67.2198,-0.00084237,-0.00013669,0.0,0 STARLINK-3926,1 52543U 22051L   23244.41838378 -.00013669  00000-0 -84237-3 0  9990,2 52543  53.2170 300.3797 0001560 292.8630  67.2198 15.08840038 72582,6917.88,95.438,540.824,538.666,0.0
52543.0,STARLINK-3926,PAYLOAD,2023-09-01 21:10:08,15.08844855,0.0001295,53.2171,298.2969,86.5465,273.5675,0.00011067,1.474e-05,0.0,0 STARLINK-3926,1 52543U 22051L   23244.88204626  .00001474  00000-0  11067-3 0  9994,2 52543  53.2171 298.2969 0001295  86.5465 273.5675 15.08844855 72581,6917.866,95.437,540.626,538.835,0.0
52543.0,STARLINK-3926,PAYLOAD,2023-09-02 09:53:13,15.08846328,0.0001553,53.2159,295.9169,92.5795,267.5375,7.232e-05,8.63e-06,0.0,0 STARLINK-3926,1 52543U 22051L   23245.41196558  .00000863  00000-0  72320-4 0  9999,2 52543  53.2159 295.9169 0001553  92.5795 267.5375 15.08846328 72669,6917.861,95.437,540.8,538.652,0.0
52543.0,STARLINK-3926,PAYLOAD,2023-09-02 21:00:55,15.08846386,0.000143,53.2163,293.8355,93.043,267.0726,3.83e-05,3.22e-06,0.0,0 STARLINK-3926,1 52543U 22051L   23245.87564543  .00000322  00000-0  38300-4 0  9992,2 52543  53.2163 293.8355 0001430  93.0430 267.0726 15.08846386 72731,6917.861,95.437,540.715,538.737,0.0
52543.0,STARLINK-3926,PAYLOAD,2023-09-03 09:44:01,15.08842016,0.0001574,53.2155,291.4567,92.9332,267.184,1.4323e-05,-6e-07,0.0,0 STARLINK-3926,1 52543U 22051L   23246.40556793 -.00000060  00000-0  14323-4 0  9999,2 52543  53.2155 291.4567 0001574  92.9332 267.1840 15.08842016 72889,6917.874,95.437,540.828,538.65,0.0
52543.0,STARLINK-3926,PAYLOAD,2023-09-04 09:34:49,15.08831849,0.0001719,53.2161,286.9961,91.3641,268.7548,-8.0541e-05,-1.569e-05,0.0,0 STARLINK-3926,1 52543U 22051L   23247.39917977 -.00001569  00000-0 -80541-4 0  9994,2 52543  53.2161 286.9961 0001719  91.3641 268.7548 15.08831849 73032,6917.905,95.438,540.959,538.581,0.0
52543.0,STARLINK-3926,PAYLOAD,2023-09-04 12:45:35,15.08829379,0.0001628,53.2161,286.4018,90.8395,269.2784,-5.96e-05,-1.236e-05,0.0,0 STARLINK-3926,1 52543U 22051L   23247.53166125 -.00001236  00000-0 -59600-4 0  9994,2 52543  53.2161 286.4018 0001628  90.8395 269.2784 15.08829379 72985,6917.913,95.438,540.904,538.652,0.0
52543.0,STARLINK-3926,PAYLOAD,2023-09-05 03:04:03,15.08833806,0.0001531,53.2167,283.7253,90.7193,269.3975,3.0764e-05,2.02e-06,0.0,0 STARLINK-3926,1 52543U 22051L   23248.12781823  .00000202  00000-0  30764-4 0  9998,2 52543  53.2167 283.7253 0001531  90.7193 269.3975 15.08833806 73142,6917.899,95.438,540.823,538.705,0.0
